start=new Date('2023-03-02T00:00:00.000Z').valueOf();
sats=[{"TLE_LINE1":"1 46740U 20074B   23060.77167105  .00008724  00000-0  60377-3 0  9996","TLE_LINE2":"2 46740  53.0516 242.2969 0001357  71.9025 288.2112 15.06403608130211","APOAPSIS":"548.142","ECCENTRICITY":"0.00013570","GP_ID":"227315644","SEMIMAJOR_AXIS":"6925.337","CENTER_NAME":"EARTH","FILE":"3848834","EPOCH":"2023-03-01T18:31:12.378720","LAUNCH_DATE":"2020-10-24","OBJECT_TYPE":"PAYLOAD","PERIAPSIS":"546.263","BSTAR":"0.00060377000000","INCLINATION":"53.0516","MEAN_MOTION_DDOT":"0.0000000000000","EPHEMERIS_TYPE":"0","DECAY_DATE":null,"MEAN_MOTION":"15.06403608","MEAN_ELEMENT_THEORY":"SGP4","OBJECT_NAME":"STARLINK-1848","ELEMENT_SET_NO":"999","MEAN_MOTION_DOT":"0.00008724","REV_AT_EPOCH":"13021","CLASSIFICATION_TYPE":"U","OBJECT_ID":"2020-074B","REF_FRAME":"TEME","NORAD_CAT_ID":"46740","RA_OF_ASC_NODE":"242.2969","MEAN_ANOMALY":"288.2112","RCS_SIZE":"LARGE","TIME_SYSTEM":"UTC","SITE":"AFETR","ARG_OF_PERICENTER":"71.9025","PERIOD":"95.592","COUNTRY_CODE":"US"},{"MEAN_MOTION_DDOT":"0.0000000000000","INCLINATION":"53.0502","LAUNCH_DATE":"2020-10-24","OBJECT_TYPE":"PAYLOAD","PERIAPSIS":"546.418","BSTAR":"-0.00001755000000","CENTER_NAME":"EARTH","FILE":"3848834","EPOCH":"2023-03-01T18:55:45.023520","SEMIMAJOR_AXIS":"6925.362","GP_ID":"227315894","TLE_LINE1":"1 46741U 20074C   23060.78871555 -.00000543  00000-0 -17550-4 0  9998","TLE_LINE2":"2 46741  53.0502 237.2248 0001169  93.9904 266.1218 15.06395457130294","APOAPSIS":"548.037","ECCENTRICITY":"0.00011690","PERIOD":"95.592","COUNTRY_CODE":"US","ARG_OF_PERICENTER":"93.9904","SITE":"AFETR","MEAN_ANOMALY":"266.1218","RCS_SIZE":"LARGE","TIME_SYSTEM":"UTC","REV_AT_EPOCH":"13029","OBJECT_ID":"2020-074C","CLASSIFICATION_TYPE":"U","RA_OF_ASC_NODE":"237.2248","REF_FRAME":"TEME","NORAD_CAT_ID":"46741","OBJECT_NAME":"STARLINK-1865","ELEMENT_SET_NO":"999","MEAN_MOTION_DOT":"-0.00000543","MEAN_MOTION":"15.06395457","DECAY_DATE":null,"MEAN_ELEMENT_THEORY":"SGP4","EPHEMERIS_TYPE":"0"},{"BSTAR":"0.00198180000000","PERIAPSIS":"346.002","OBJECT_TYPE":"PAYLOAD","LAUNCH_DATE":"2020-10-24","INCLINATION":"53.0464","MEAN_MOTION_DDOT":"0.0000000000000","APOAPSIS":"353.785","TLE_LINE2":"2 46742  53.0464 179.0185 0005784 340.1471 138.0442 15.73153382  1306","ECCENTRICITY":"0.00057840","TLE_LINE1":"1 46742U 20074D   23061.00001157  .00286855  00000-0  19818-2 0  9995","GP_ID":"227316644","SEMIMAJOR_AXIS":"6728.028","EPOCH":"2023-03-02T00:00:00.999648","FILE":"3848834","CENTER_NAME":"EARTH","TIME_SYSTEM":"UTC","RCS_SIZE":"LARGE","MEAN_ANOMALY":"138.0442","SITE":"AFETR","ARG_OF_PERICENTER":"340.1471","COUNTRY_CODE":"US","PERIOD":"91.536","EPHEMERIS_TYPE":"0","MEAN_ELEMENT_THEORY":"SGP4","DECAY_DATE":null,"MEAN_MOTION":"15.73153382","MEAN_MOTION_DOT":"0.00286855","ELEMENT_SET_NO":"999","OBJECT_NAME":"STARLINK-1872","REF_FRAME":"TEME","RA_OF_ASC_NODE":"179.0185","NORAD_CAT_ID":"46742","CLASSIFICATION_TYPE":"U","OBJECT_ID":"2020-074D","REV_AT_EPOCH":"130"},{"TLE_LINE1":"1 46743U 20074E   23060.78134445  .00003769  00000-0  27178-3 0  9997","APOAPSIS":"548.073","TLE_LINE2":"2 46743  53.0542 237.2482 0001252  89.3883 270.7250 15.06402375130293","ECCENTRICITY":"0.00012520","GP_ID":"227316392","SEMIMAJOR_AXIS":"6925.341","EPOCH":"2023-03-01T18:45:08.160480","CENTER_NAME":"EARTH","FILE":"3848834","PERIAPSIS":"546.339","BSTAR":"0.00027178000000","LAUNCH_DATE":"2020-10-24","OBJECT_TYPE":"PAYLOAD","INCLINATION":"53.0542","MEAN_MOTION_DDOT":"0.0000000000000","EPHEMERIS_TYPE":"0","MEAN_ELEMENT_THEORY":"SGP4","DECAY_DATE":null,"MEAN_MOTION":"15.06402375","MEAN_MOTION_DOT":"0.00003769","OBJECT_NAME":"STARLINK-1892","ELEMENT_SET_NO":"999","CLASSIFICATION_TYPE":"U","OBJECT_ID":"2020-074E","NORAD_CAT_ID":"46743","RA_OF_ASC_NODE":"237.2482","REF_FRAME":"TEME","REV_AT_EPOCH":"13029","TIME_SYSTEM":"UTC","MEAN_ANOMALY":"270.7250","RCS_SIZE":"LARGE","ARG_OF_PERICENTER":"89.3883","SITE":"AFETR","COUNTRY_CODE":"US","PERIOD":"95.592"},{"MEAN_MOTION_DOT":"-0.00003564","OBJECT_NAME":"STARLINK-1894","ELEMENT_SET_NO":"999","OBJECT_ID":"2020-074F","CLASSIFICATION_TYPE":"U","REF_FRAME":"TEME","NORAD_CAT_ID":"46744","RA_OF_ASC_NODE":"238.3561","REV_AT_EPOCH":"13025","EPHEMERIS_TYPE":"0","MEAN_ELEMENT_THEORY":"SGP4","MEAN_MOTION":"15.06396482","DECAY_DATE":null,"COUNTRY_CODE":"US","PERIOD":"95.592","TIME_SYSTEM":"UTC","MEAN_ANOMALY":"263.4671","RCS_SIZE":"LARGE","SITE":"AFETR","ARG_OF_PERICENTER":"96.6460","SEMIMAJOR_AXIS":"6925.359","EPOCH":"2023-03-01T12:48:09.057888","CENTER_NAME":"EARTH","FILE":"3848834","TLE_LINE1":"1 46744U 20074F   23060.53343817 -.00003564  00000-0 -22049-3 0  9993","TLE_LINE2":"2 46744  53.0536 238.3561 0001245  96.6460 263.4671 15.06396482130254","APOAPSIS":"548.087","ECCENTRICITY":"0.00012450","GP_ID":"227315145","INCLINATION":"53.0536","MEAN_MOTION_DDOT":"0.0000000000000","PERIAPSIS":"546.362","BSTAR":"-0.00022049000000","LAUNCH_DATE":"2020-10-24","OBJECT_TYPE":"PAYLOAD"},{"SEMIMAJOR_AXIS":"6925.362","EPOCH":"2023-03-01T17:57:21.927744","CENTER_NAME":"EARTH","FILE":"3848834","TLE_LINE1":"1 46746U 20074H   23060.74817046  .00005264  00000-0  37208-3 0  9998","TLE_LINE2":"2 46746  53.0504 237.4037 0001098  97.8456 262.2657 15.06395464130286","APOAPSIS":"547.988","ECCENTRICITY":"0.00010980","GP_ID":"227315395","INCLINATION":"53.0504","MEAN_MOTION_DDOT":"0.0000000000000","PERIAPSIS":"546.467","BSTAR":"0.00037208000000","LAUNCH_DATE":"2020-10-24","OBJECT_TYPE":"PAYLOAD","MEAN_MOTION_DOT":"0.00005264","OBJECT_NAME":"STARLINK-1905","ELEMENT_SET_NO":"999","OBJECT_ID":"2020-074H","CLASSIFICATION_TYPE":"U","RA_OF_ASC_NODE":"237.4037","NORAD_CAT_ID":"46746","REF_FRAME":"TEME","REV_AT_EPOCH":"13028","EPHEMERIS_TYPE":"0","MEAN_ELEMENT_THEORY":"SGP4","DECAY_DATE":null,"MEAN_MOTION":"15.06395464","COUNTRY_CODE":"US","PERIOD":"95.592","TIME_SYSTEM":"UTC","MEAN_ANOMALY":"262.2657","RCS_SIZE":"LARGE","SITE":"AFETR","ARG_OF_PERICENTER":"97.8456"},{"ARG_OF_PERICENTER":"89.4169","SITE":"AFETR","TIME_SYSTEM":"UTC","MEAN_ANOMALY":"270.6907","RCS_SIZE":"LARGE","COUNTRY_CODE":"US","PERIOD":"95.593","MEAN_ELEMENT_THEORY":"SGP4","MEAN_MOTION":"15.06394246","DECAY_DATE":null,"EPHEMERIS_TYPE":"0","OBJECT_ID":"2020-074J","CLASSIFICATION_TYPE":"U","REF_FRAME":"TEME","RA_OF_ASC_NODE":"236.8887","NORAD_CAT_ID":"46747","REV_AT_EPOCH":"13030","MEAN_MOTION_DOT":"0.00000856","OBJECT_NAME":"STARLINK-1908","ELEMENT_SET_NO":"999","PERIAPSIS":"546.703","BSTAR":"0.00007636700000","LAUNCH_DATE":"2020-10-24","OBJECT_TYPE":"PAYLOAD","MEAN_MOTION_DDOT":"0.0000000000000","INCLINATION":"53.0544","GP_ID":"227316146","TLE_LINE1":"1 46747U 20074J   23060.86243340  .00000856  00000-0  76367-4 0  9994","TLE_LINE2":"2 46747  53.0544 236.8887 0000762  89.4169 270.6907 15.06394246130303","APOAPSIS":"547.759","ECCENTRICITY":"0.00007620","EPOCH":"2023-03-01T20:41:54.245760","CENTER_NAME":"EARTH","FILE":"3848834","SEMIMAJOR_AXIS":"6925.366"},{"TIME_SYSTEM":"UTC","RCS_SIZE":"LARGE","MEAN_ANOMALY":"269.3152","ARG_OF_PERICENTER":"90.7959","SITE":"AFETR","COUNTRY_CODE":"US","PERIOD":"95.594","EPHEMERIS_TYPE":"0","MEAN_ELEMENT_THEORY":"SGP4","MEAN_MOTION":"15.06377792","DECAY_DATE":null,"MEAN_MOTION_DOT":"-0.00004224","ELEMENT_SET_NO":"999","OBJECT_NAME":"STARLINK-1910","REF_FRAME":"TEME","NORAD_CAT_ID":"46748","RA_OF_ASC_NODE":"238.6395","OBJECT_ID":"2020-074K","CLASSIFICATION_TYPE":"U","REV_AT_EPOCH":"13024","BSTAR":"-0.00026504000000","PERIAPSIS":"546.541","OBJECT_TYPE":"PAYLOAD","LAUNCH_DATE":"2020-10-24","INCLINATION":"53.0537","MEAN_MOTION_DDOT":"0.0000000000000","TLE_LINE2":"2 46748  53.0537 238.6395 0001069  90.7959 269.3152 15.06377792130240","APOAPSIS":"548.022","ECCENTRICITY":"0.00010690","TLE_LINE1":"1 46748U 20074K   23060.47173915 -.00004224  00000-0 -26504-3 0  9994","GP_ID":"227316892","SEMIMAJOR_AXIS":"6925.417","EPOCH":"2023-03-01T11:19:18.262560","FILE":"3848834","CENTER_NAME":"EARTH"},{"EPHEMERIS_TYPE":"0","MEAN_MOTION":"15.06393959","DECAY_DATE":null,"MEAN_ELEMENT_THEORY":"SGP4","ELEMENT_SET_NO":"999","OBJECT_NAME":"STARLINK-1911","MEAN_MOTION_DOT":"0.00016656","REV_AT_EPOCH":"13028","NORAD_CAT_ID":"46749","REF_FRAME":"TEME","RA_OF_ASC_NODE":"237.4217","OBJECT_ID":"2020-074L","CLASSIFICATION_TYPE":"U","RCS_SIZE":"LARGE","MEAN_ANOMALY":"244.9408","TIME_SYSTEM":"UTC","ARG_OF_PERICENTER":"115.1698","SITE":"AFETR","PERIOD":"95.593","COUNTRY_CODE":"US","APOAPSIS":"548.017","TLE_LINE2":"2 46749  53.0505 237.4217 0001134 115.1698 244.9408 15.06393959130281","ECCENTRICITY":"0.00011340","TLE_LINE1":"1 46749U 20074L   23060.74449180  .00016656  00000-0  11346-2 0  9992","GP_ID":"227315645","SEMIMAJOR_AXIS":"6925.367","FILE":"3848834","CENTER_NAME":"EARTH","EPOCH":"2023-03-01T17:52:04.091520","OBJECT_TYPE":"PAYLOAD","LAUNCH_DATE":"2020-10-24","BSTAR":"0.00113460000000","PERIAPSIS":"546.447","INCLINATION":"53.0505","MEAN_MOTION_DDOT":"0.0000000000000"},{"SITE":"AFETR","ARG_OF_PERICENTER":"104.1258","MEAN_ANOMALY":"255.9874","RCS_SIZE":"LARGE","TIME_SYSTEM":"UTC","PERIOD":"95.592","COUNTRY_CODE":"US","DECAY_DATE":null,"MEAN_MOTION":"15.06396539","MEAN_ELEMENT_THEORY":"SGP4","EPHEMERIS_TYPE":"0","REV_AT_EPOCH":"13029","CLASSIFICATION_TYPE":"U","OBJECT_ID":"2020-074N","RA_OF_ASC_NODE":"237.1407","REF_FRAME":"TEME","NORAD_CAT_ID":"46751","OBJECT_NAME":"STARLINK-1920","ELEMENT_SET_NO":"999","MEAN_MOTION_DOT":"0.00009628","LAUNCH_DATE":"2020-10-24","OBJECT_TYPE":"PAYLOAD","PERIAPSIS":"546.332","BSTAR":"0.00066443000000","MEAN_MOTION_DDOT":"0.0000000000000","INCLINATION":"53.0506","GP_ID":"227315895","TLE_LINE1":"1 46751U 20074N   23060.80714759  .00009628  00000-0  66443-3 0  9999","TLE_LINE2":"2 46751  53.0506 237.1407 0001288 104.1258 255.9874 15.06396539130290","APOAPSIS":"548.116","ECCENTRICITY":"0.00012880","CENTER_NAME":"EARTH","FILE":"3848834","EPOCH":"2023-03-01T19:22:17.551776","SEMIMAJOR_AXIS":"6925.359"}];
